NORAD_CAT_ID,OBJECT_NAME,OBJECT_TYPE,EPOCH,MEAN_MOTION,ECCENTRICITY,INCLINATION,RA_OF_ASC_NODE,ARG_OF_PERICENTER,MEAN_ANOMALY,BSTAR,MEAN_MOTION_DOT,MEAN_MOTION_DDOT,TLE_LINE0,TLE_LINE1,TLE_LINE2,SEMIMAJOR_AXIS,PERIOD,APOGEE,PERIGEE,DECAYED
51995.0,STARLINK-3636,PAYLOAD,2023-10-26 10:45:27,15.08844651,0.000166,53.218,303.3383,102.2265,257.8913,5.8733e-05,6.47e-06,0.0,0 STARLINK-3636,1 51995U 22025AR  23299.44823298  .00000647  00000-0  58733-4 0  9992,2 51995  53.2180 303.3383 0001660 102.2265 257.8913 15.08844651 90280,6917.866,95.437,540.88,538.583,0.0
51995.0,STARLINK-3636,PAYLOAD,2023-10-27 07:25:27,15.08855909,0.0001544,53.2159,299.4748,96.5674,263.5494,0.00024351,3.591e-05,0.0,0 STARLINK-3636,1 51995U 22025AR  23300.30934392  .00003591  00000-0  24351-3 0  9997,2 51995  53.2159 299.4748 0001544  96.5674 263.5494 15.08855909 91935,6917.832,95.437,540.765,538.629,0.0
51995.0,STARLINK-3636,PAYLOAD,2023-10-27 16:57:46,15.08850494,0.0001455,53.2159,297.6902,82.9826,277.1331,0.00012804,1.751e-05,0.0,0 STARLINK-3636,1 51995U 22025AR  23300.70678482  .00001751  00000-0  12804-3 0  9992,2 51995  53.2159 297.6902 0001455  82.9826 277.1331 15.08850494 91997,6917.848,95.437,540.72,538.707,0.0
51995.0,STARLINK-3636,PAYLOAD,2023-10-28 07:16:15,15.08830897,0.0001686,53.2162,295.0132,85.2105,274.908,-0.00013598,-2.451e-05,0.0,0 STARLINK-3636,1 51995U 22025AR  23301.30295552 -.00002451  00000-0 -13598-3 0  9993,2 51995  53.2162 295.0132 0001686  85.2105 274.9080 15.08830897 92082,6917.908,95.438,540.94,538.607,0.0
51995.0,STARLINK-3636,PAYLOAD,2023-10-28 16:48:34,15.08836537,0.0001625,53.2162,293.2296,88.0014,272.1164,2.2249e-05,6.6e-07,0.0,0 STARLINK-3636,1 51995U 22025AR  23301.70039514  .00000066  00000-0  22249-4 0  9993,2 51995  53.2162 293.2296 0001625  88.0014 272.1164 15.08836537 90624,6917.891,95.438,540.88,538.632,0.0
51995.0,STARLINK-3636,PAYLOAD,2023-10-29 05:31:38,15.08851906,0.0001668,53.2166,290.8494,96.482,263.6362,0.00032745,4.929e-05,0.0,0 STARLINK-3636,1 51995U 22025AR  23302.23031030  .00004929  00000-0  32745-3 0  9990,2 51995  53.2166 290.8494 0001668  96.4820 263.6362 15.08851906 92226,6917.844,95.437,540.863,538.555,0.0
51995.0,STARLINK-3636,PAYLOAD,2023-10-29 08:42:24,15.08856248,0.0001585,53.2166,290.2543,94.1876,265.9297,0.00043161,6.591e-05,0.0,0 STARLINK-3636,1 51995U 22025AR  23302.36278835  .00006591  00000-0  43161-3 0  9991,2 51995  53.2166 290.2543 0001585  94.1876 265.9297 15.08856248 90728,6917.831,95.437,540.792,538.599,0.0
51995.0,STARLINK-3636,PAYLOAD,2023-10-29 16:39:21,15.08841785,0.0001517,53.2167,288.7697,97.8878,262.2287,0.00018364,2.636e-05,0.0,0 STARLINK-3636,1 51995U 22025AR  23302.69399465  .00002636  00000-0  18364-3 0  9993,2 51995  53.2167 288.7697 0001517  97.8878 262.2287 15.08841785 92291,6917.875,95.437,540.789,538.69,0.0
51995.0,STARLINK-3636,PAYLOAD,2023-10-29 23:00:54,15.08840452,0.0002096,53.2175,287.5799,90.8857,269.2375,0.00028611,4.268e-05,0.0,0 STARLINK-3636,1 51995U 22025AR  23302.95895873  .00004268  00000-0  28611-3 0  9995,2 51995  53.2175 287.5799 0002096  90.8857 269.2375 15.08840452 90814,6917.879,95.438,541.194,538.294,0.0
51995.0,STARLINK-3636,PAYLOAD,2023-10-30 10:08:35,15.0885384,0.0001686,53.2159,285.4977,100.2791,259.8392,0.00051795,7.968e-05,0.0,0 STARLINK-3636,1 51995U 22025AR  23303.42263255  .00007968  00000-0  51795-3 0  9990,2 51995  53.2159 285.4977 0001686 100.2791 259.8392 15.08853840 90884,6917.838,95.437,540.869,538.537,0.0
51995.0,STARLINK-3636,PAYLOAD,2023-10-31 05:13:13,15.08844375,0.0001721,53.2169,281.9296,97.6366,262.4822,0.00077103,0.00012006,0.0,0 STARLINK-3636,1 51995U 22025AR  23304.21752145  .00012006  00000-0  77103-3 0  9999,2 51995  53.2169 281.9296 0001721  97.6366 262.4822 15.08844375 92521,6917.867,95.437,540.923,538.541,0.0
51995.0,STARLINK-3636,PAYLOAD,2023-10-31 08:24:00,15.08844931,0.0001782,53.2173,281.3349,95.4917,264.6278,0.0013747,0.00021661,0.0,0 STARLINK-3636,1 51995U 22025AR  23304.35000254  .00021661  00000-0  13747-2 0  9991,2 51995  53.2173 281.3349 0001782  95.4917 264.6278 15.08844931 91025,6917.865,95.437,540.963,538.498,0.0
51995.0,STARLINK-3636,PAYLOAD,2023-11-01 05:04:00,15.08849355,0.0001719,53.2171,277.4678,96.6903,263.4285,0.0005712,8.817e-05,0.0,0 STARLINK-3636,1 51995U 22025AR  23305.21112169  .00008817  00000-0  57120-3 0  9998,2 51995  53.2171 277.4678 0001719  96.6903 263.4285 15.08849355 92674,6917.852,95.437,540.906,538.528,0.0
51995.0,STARLINK-3636,PAYLOAD,2023-11-01 08:14:47,15.08853601,0.0001668,53.2169,276.8723,97.1688,262.9494,0.00060688,9.387e-05,0.0,0 STARLINK-3636,1 51995U 22025AR  23305.34360000  .00009387  00000-0  60688-3 0  9997,2 51995  53.2169 276.8723 0001668  97.1688 262.9494 15.08853601 91173,6917.839,95.437,540.858,538.55,0.0
51995.0,STARLINK-3636,PAYLOAD,2023-11-02 04:54:47,15.08849496,0.0001543,53.2171,273.0079,85.3143,274.8026,0.00030065,4.501e-05,0.0,0 STARLINK-3636,1 51995U 22025AR  23306.20471977  .00004501  00000-0  30065-3 0  9998,2 51995  53.2171 273.0079 0001543  85.3143 274.8026 15.08849496 92829,6917.851,95.437,540.784,538.649,0.0
51995.0,STARLINK-3636,PAYLOAD,2023-11-02 14:27:06,15.08844196,0.0001361,53.2169,271.2218,76.1977,283.9167,0.00016592,2.354e-05,0.0,0 STARLINK-3636,1 51995U 22025AR  23306.60216211  .00002354  00000-0  16592-3 0  9993,2 51995  53.2169 271.2218 0001361  76.1977 283.9167 15.08844196 91369,6917.868,95.437,540.674,538.791,0.0
51995.0,STARLINK-3636,PAYLOAD,2023-11-03 06:20:57,15.08852489,0.0001605,53.2171,268.252,101.0488,259.0684,0.00037084,5.621e-05,0.0,0 STARLINK-3636,1 51995U 22025AR  23307.26455689  .00005621  00000-0  37084-3 0  9999,2 51995  53.2171 268.2520 0001605 101.0488 259.0684 15.08852489 91463,6917.842,95.437,540.818,538.597,0.0
51995.0,STARLINK-3636,PAYLOAD,2023-11-04 03:00:59,15.0883915,0.00018,53.2179,264.387,84.7698,275.35,0.00017136,2.44e-05,0.0,0 STARLINK-3636,1 51995U 22025AR  23308.12568500  .00002440  00000-0  17136-3 0  9994,2 51995  53.2179 264.3870 0001800  84.7698 275.3500 15.08839150 93115,6917.883,95.438,540.993,538.503,0.0
51995.0,STARLINK-3636,PAYLOAD,2023-11-04 14:08:41,15.08842605,0.0001824,53.2182,262.3022,83.3806,276.7393,0.00019312,2.787e-05,0.0,0 STARLINK-3636,1 51995U 22025AR  23308.58936427  .00002787  00000-0  19312-3 0  9993,2 51995  53.2182 262.3022 0001824  83.3806 276.7393 15.08842605 91660,6917.872,95.437,540.999,538.476,0.0
51995.0,STARLINK-3636,PAYLOAD,2023-11-05 04:27:08,15.08857991,0.0001498,53.2164,259.6281,88.5173,271.599,0.00062241,9.636e-05,0.0,0 STARLINK-3636,1 51995U 22025AR  23309.18551914  .00009636  00000-0  62241-3 0  9993,2 51995  53.2164 259.6281 0001498  88.5173 271.5990 15.08857991 93276,6917.825,95.436,540.727,538.654,0.0
51995.0,STARLINK-3636,PAYLOAD,2023-11-05 13:59:27,15.08846461,0.0001397,53.217,257.8451,107.1481,252.9664,0.00048658,7.466e-05,0.0,0 STARLINK-3636,1 51995U 22025AR  23309.58296117  .00007466  00000-0  48658-3 0  9993,2 51995  53.2170 257.8451 0001397 107.1481 252.9664 15.08846461 91819,6917.861,95.437,540.692,538.759,0.0
51995.0,STARLINK-3636,PAYLOAD,2023-11-06 02:42:31,15.08866188,0.0001304,53.2157,255.4641,135.4312,224.6785,0.00076126,0.00011857,0.0,0 STARLINK-3636,1 51995U 22025AR  23310.11286929  .00011857  00000-0  76126-3 0  9994,2 51995  53.2157 255.4641 0001304 135.4312 224.6785 15.08866188 93410,6917.8,95.436,540.567,538.763,0.0
51995.0,STARLINK-3636,PAYLOAD,2023-11-06 05:53:17,15.08893477,0.0001881,53.2182,254.8681,114.6094,245.5095,0.0016412,0.00025967,0.0,0 STARLINK-3636,1 51995U 22025AR  23310.24534564  .00025967  00000-0  16412-2 0  9997,2 51995  53.2182 254.8681 0001881 114.6094 245.5095 15.08893477 93430,6917.717,95.434,540.883,538.281,0.0
51995.0,STARLINK-3636,PAYLOAD,2023-11-06 13:50:14,15.08843686,0.000257,53.2184,253.3813,90.6771,269.4515,-0.00024232,-4.144e-05,0.0,0 STARLINK-3636,1 51995U 22025AR  23310.57655555 -.00004144  00000-0 -24232-3 0  9993,2 51995  53.2184 253.3813 0002570  90.6771 269.4515 15.08843686 91969,6917.869,95.437,541.512,537.956,0.0
51995.0,STARLINK-3636,PAYLOAD,2023-11-07 02:33:20,15.08814787,0.0001605,53.2165,251.0036,95.2673,264.8503,-0.00056795,-9.309e-05,0.0,0 STARLINK-3636,1 51995U 22025AR  23311.10648247 -.00009309  00000-0 -56795-3 0  9990,2 51995  53.2165 251.0036 0001605  95.2673 264.8503 15.08814787 93564,6917.957,95.439,540.933,538.712,0.0
51995.0,STARLINK-3636,PAYLOAD,2023-11-07 13:41:02,15.0881255,0.0001376,53.2175,248.9228,92.4855,267.6295,0.00031974,4.801e-05,0.0,0 STARLINK-3636,1 51995U 22025AR  23311.57017281  .00004801  00000-0  31974-3 0  9991,2 51995  53.2175 248.9228 0001376  92.4855 267.6295 15.08812550 92114,6917.964,95.439,540.781,538.877,0.0
51995.0,STARLINK-3636,PAYLOAD,2023-11-08 00:48:45,15.08835084,0.0001432,53.2167,246.8416,84.7774,275.3382,0.001106,0.00017355,0.0,0 STARLINK-3636,1 51995U 22025AR  23312.03385670  .00017355  00000-0  11060-2 0  9994,2 51995  53.2167 246.8416 0001432  84.7774 275.3382 15.08835084 93704,6917.895,95.438,540.751,538.77,0.0
51995.0,STARLINK-3636,PAYLOAD,2023-11-09 02:14:54,15.08865583,0.0001549,53.2176,242.0833,94.8856,265.2313,0.00084706,0.00013228,0.0,0 STARLINK-3636,1 51995U 22025AR  23313.09368781  .00013228  00000-0  84706-3 0  9998,2 51995  53.2176 242.0833 0001549  94.8856 265.2313 15.08865583 93863,6917.802,95.436,540.739,538.596,0.0
51995.0,STARLINK-3636,PAYLOAD,2023-11-09 22:54:54,15.08873209,0.0001552,53.2174,238.2168,97.3775,262.7393,0.00047269,7.25e-05,0.0,0 STARLINK-3636,1 51995U 22025AR  23313.95479168  .00007250  00000-0  47269-3 0  9996,2 51995  53.2174 238.2168 0001552  97.3775 262.7393 15.08873209 92471,6917.779,95.435,540.718,538.57,0.0
51995.0,STARLINK-3636,PAYLOAD,2023-11-10 02:05:39,15.08880985,0.0001476,53.2174,237.6249,82.3801,277.7359,0.00064699,0.00010035,0.0,0 STARLINK-3636,1 51995U 22025AR  23314.08726796  .00010035  00000-0  64699-3 0  9994,2 51995  53.2174 237.6249 0001476  82.3801 277.7359 15.08880985 94012,6917.755,95.435,540.641,538.599,0.0
